IRIDIUM 166             
1 43570U 18061B   24183.53979754 -.00000218  00000+0 -85009-4 0  9990
2 43570  86.3972 355.8110 0002278  94.7540 265.3916 14.34216667310823
IRIDIUM 165             
1 43572U 18061D   24183.53345457 -.00000061  00000+0 -28826-4 0  9999
2 43572  86.3974 355.8556 0002202  88.9999 271.1450 14.34216919310818
IRIDIUM 155             
1 43573U 18061E   24183.56516518  .00000196  00000+0  62797-4 0  9993
2 43573  86.3973 355.7467 0002320  94.6397 265.5064 14.34219215310781
IRIDIUM 154             
1 43574U 18061F   24183.54613776  .00000113  00000+0  33397-4 0  9999
2 43574  86.3978 355.8530 0001961  87.8321 272.3100 14.34218433310834
IRIDIUM 163             
1 43575U 18061G   24183.52711096  .00000000  00000+0 -71943-5 0  9998
2 43575  86.3972 355.7988 0002044  91.2743 268.8687 14.34217443310802
IRIDIUM 156             
1 43576U 18061H   24183.50174121  .00000043  00000+0  81178-5 0  9996
2 43576  86.3975 355.8156 0002305  90.3084 269.8375 14.34214371310792
IRIDIUM 164             
1 43577U 18061J   24183.55248155  .00000125  00000+0  37479-4 0  9996
2 43577  86.3977 355.8237 0002147  82.0573 278.0866 14.34217953310842
